{
  "type": "FeatureCollection",
  "features": [
    {
      "type": "Feature",
      "properties": {
        "norad_id": 41384,
        "name": "IRNSS-1F",
        "group": "gnss",
        "lat": 1.0406352955012101,
        "lon": -91.15031836737043,
        "alt_km": 35694.280414061745,
        "timestamp": "2025-12-04T10:51:50.348744+00:00",
        "meta_object_name": "IRNSS-1F",
        "meta_object_id": "2016-015A",
        "meta_epoch": "2025-12-04T01:07:21.703008",
        "meta_mean_motion": 1.00267997,
        "meta_eccentricity": 0.0022418,
        "meta_inclination": 4.8586,
        "meta_ra_of_asc_node": 101.5153,
        "meta_arg_of_pericenter": 179.6158,
        "meta_mean_anomaly": 201.2266,
        "meta_ephemeris_type": 0,
        "meta_classification_type": "U",
        "meta_norad_cat_id": 41384,
        "meta_element_set_no": 999,
        "meta_rev_at_epoch": 3571,
        "meta_bstar": 0,
        "meta_mean_motion_dot": 1.73e-06,
        "meta_mean_motion_ddot": 0,
        "tle_line1": "1 41384U 16015A   25338.04677897  .00000173  00000+0  00000+0 0  9991",
        "tle_line2": "2 41384   4.8586 101.5153 0022418 179.6158 201.2266  1.00267997 35719"
      },
      "geometry": {
        "type": "Point",
        "coordinates": [
          -91.15031836737043,
          1.0406352955012101
        ]
      }
    },
    {
      "type": "Feature",
      "properties": {
        "norad_id": 41434,
        "name": "BEIDOU-2 IGSO-6 (C13)",
        "group": "gnss",
        "lat": -55.046842402639804,
        "lon": -15.728038005688486,
        "alt_km": 35661.80403750291,
        "timestamp": "2025-12-04T10:51:50.348756+00:00",
        "meta_object_name": "BEIDOU-2 IGSO-6 (C13)",
        "meta_object_id": "2016-021A",
        "meta_epoch": "2025-12-01T15:57:35.287200",
        "meta_mean_motion": 1.00256562,
        "meta_eccentricity": 0.00591323,
        "meta_inclination": 59.9483,
        "meta_ra_of_asc_node": 40.0119,
        "meta_arg_of_pericenter": 231.2834,
        "meta_mean_anomaly": 130.8807,
        "meta_ephemeris_type": 0,
        "meta_classification_type": "U",
        "meta_norad_cat_id": 41434,
        "meta_element_set_no": 999,
        "meta_rev_at_epoch": 3550,
        "meta_bstar": 0,
        "meta_mean_motion_dot": -1.55e-06,
        "meta_mean_motion_ddot": 0,
        "tle_line1": "1 41434U 16021A   25335.66499175 -.00000155  00000+0  00000+0 0  9991",
        "tle_line2": "2 41434  59.9483  40.0119 0059132 231.2834 130.8807  1.00256562 35501"
      },
      "geometry": {
        "type": "Point",
        "coordinates": [
          -15.728038005688486,
          -55.046842402639804
        ]
      }
    },
    {
      "type": "Feature",
      "properties": {
        "norad_id": 41469,
        "name": "IRNSS-1G",
        "group": "gnss",
        "lat": -4.671101342138602,
        "lon": 5.8889266516270915,
        "alt_km": 35790.629103844294,
        "timestamp": "2025-12-04T10:51:50.348768+00:00",
        "meta_object_name": "IRNSS-1G",
        "meta_object_id": "2016-027A",
        "meta_epoch": "2025-12-03T10:37:45.642432",
        "meta_mean_motion": 1.00266057,
        "meta_eccentricity": 0.0001387,
        "meta_inclination": 4.7139,
        "meta_ra_of_asc_node": 102.328,
        "meta_arg_of_pericenter": 15.8146,
        "meta_mean_anomaly": 243.3011,
        "meta_ephemeris_type": 0,
        "meta_classification_type": "U",
        "meta_norad_cat_id": 41469,
        "meta_element_set_no": 999,
        "meta_rev_at_epoch": 3521,
        "meta_bstar": 0,
        "meta_mean_motion_dot": -3.17e-06,
        "meta_mean_motion_ddot": 0,
        "tle_line1": "1 41469U 16027A   25337.44288938 -.00000317  00000+0  00000+0 0  9996",
        "tle_line2": "2 41469   4.7139 102.3280 0001387  15.8146 243.3011  1.00266057 35212"
      },
      "geometry": {
        "type": "Point",
        "coordinates": [
          5.8889266516270915,
          -4.671101342138602
        ]
      }
    },
    {
      "type": "Feature",
      "properties": {
        "norad_id": 41549,
        "name": "GSAT0211 (GALILEO 14)",
        "group": "gnss",
        "lat": -48.964628503576385,
        "lon": 100.11785804128196,
        "alt_km": 23234.240067887135,
        "timestamp": "2025-12-04T10:51:50.348779+00:00",
        "meta_object_name": "GSAT0211 (GALILEO 14)",
        "meta_object_id": "2016-030A",
        "meta_epoch": "2025-12-01T16:54:04.942368",
        "meta_mean_motion": 1.70472896,
        "meta_eccentricity": 0.00038995,
        "meta_inclination": 55.1563,
        "meta_ra_of_asc_node": 227.1275,
        "meta_arg_of_pericenter": 10.5053,
        "meta_mean_anomaly": 349.5828,
        "meta_ephemeris_type": 0,
        "meta_classification_type": "U",
        "meta_norad_cat_id": 41549,
        "meta_element_set_no": 999,
        "meta_rev_at_epoch": 5930,
        "meta_bstar": 0,
        "meta_mean_motion_dot": 3.3e-07,
        "meta_mean_motion_ddot": 0,
        "tle_line1": "1 41549U 16030A   25335.70422387  .00000033  00000+0  00000+0 0  9998",
        "tle_line2": "2 41549  55.1563 227.1275 0003899  10.5053 349.5828  1.70472896 59309"
      },
      "geometry": {
        "type": "Point",
        "coordinates": [
          100.11785804128196,
          -48.964628503576385
        ]
      }
    },
    {
      "type": "Feature",
      "properties": {
        "norad_id": 41550,
        "name": "GSAT0210 (GALILEO 13)",
        "group": "gnss",
        "lat": 55.1551501442161,
        "lon": -45.08999347069027,
        "alt_km": 23219.089136300496,
        "timestamp": "2025-12-04T10:51:50.348791+00:00",
        "meta_object_name": "GSAT0210 (GALILEO 13)",
        "meta_object_id": "2016-030B",
        "meta_epoch": "2025-12-03T03:14:10.364352",
        "meta_mean_motion": 1.70473449,
        "meta_eccentricity": 0.00012228,
        "meta_inclination": 55.1551,
        "meta_ra_of_asc_node": 227.0861,
        "meta_arg_of_pericenter": 241.4534,
        "meta_mean_anomaly": 118.6225,
        "meta_ephemeris_type": 0,
        "meta_classification_type": "U",
        "meta_norad_cat_id": 41550,
        "meta_element_set_no": 999,
        "meta_rev_at_epoch": 5932,
        "meta_bstar": 0,
        "meta_mean_motion_dot": 3.9e-07,
        "meta_mean_motion_ddot": 0,
        "tle_line1": "1 41550U 16030B   25337.13484218  .00000039  00000+0  00000+0 0  9996",
        "tle_line2": "2 41550  55.1551 227.0861 0001222 241.4534 118.6225  1.70473449 59328"
      },
      "geometry": {
        "type": "Point",
        "coordinates": [
          -45.08999347069027,
          55.1551501442161
        ]
      }
    },
    {
      "type": "Feature",
      "properties": {
        "norad_id": 41586,
        "name": "BEIDOU-2 G7 (C03)",
        "group": "gnss",
        "lat": -1.703166609801515,
        "lon": -13.092110605196979,
        "alt_km": 35784.87622933599,
        "timestamp": "2025-12-04T10:51:50.348806+00:00",
        "meta_object_name": "BEIDOU-2 G7 (C03)",
        "meta_object_id": "2016-037A",
        "meta_epoch": "2025-12-03T19:25:06.201984",
        "meta_mean_motion": 1.00271395,
        "meta_eccentricity": 0.00043865,
        "meta_inclination": 1.7336,
        "meta_ra_of_asc_node": 67.6984,
        "meta_arg_of_pericenter": 4.1798,
        "meta_mean_anomaly": 42.7772,
        "meta_ephemeris_type": 0,
        "meta_classification_type": "U",
        "meta_norad_cat_id": 41586,
        "meta_element_set_no": 999,
        "meta_rev_at_epoch": 493,
        "meta_bstar": 0,
        "meta_mean_motion_dot": -3.37e-06,
        "meta_mean_motion_ddot": 0,
        "tle_line1": "1 41586U 16037A   25337.80909956 -.00000337  00000+0  00000+0 0  9999",
        "tle_line2": "2 41586   1.7336  67.6984 0004386   4.1798  42.7772  1.00271395  4939"
      },
      "geometry": {
        "type": "Point",
        "coordinates": [
          -13.092110605196979,
          -1.703166609801515
        ]
      }
    },
    {
      "type": "Feature",
      "properties": {
        "norad_id": 41589,
        "name": "EUTELSAT 117 WEST B (WAAS/PRN 131)",
        "group": "gnss",
        "lat": -0.006905467458972424,
        "lon": 119.46467414245127,
        "alt_km": 35786.08719547122,
        "timestamp": "2025-12-04T10:51:50.348819+00:00",
        "meta_object_name": "EUTELSAT 117 WEST B (WAAS/PRN 131)",
        "meta_object_id": "2016-038B",
        "meta_epoch": "2025-12-04T02:38:16.325088",
        "meta_mean_motion": 1.0026993,
        "meta_eccentricity": 1.62e-05,
        "meta_inclination": 0.0084,
        "meta_ra_of_asc_node": 141.8858,
        "meta_arg_of_pericenter": 294.8653,
        "meta_mean_anomaly": 279.0065,
        "meta_ephemeris_type": 0,
        "meta_classification_type": "U",
        "meta_norad_cat_id": 41589,
        "meta_element_set_no": 999,
        "meta_rev_at_epoch": 3470,
        "meta_bstar": 0,
        "meta_mean_motion_dot": 5e-08,
        "meta_mean_motion_ddot": 0,
        "tle_line1": "1 41589U 16038B   25338.10991117  .00000005  00000+0  00000+0 0  9998",
        "tle_line2": "2 41589   0.0084 141.8858 0000162 294.8653 279.0065  1.00269930 34705"
      },
      "geometry": {
        "type": "Point",
        "coordinates": [
          119.46467414245127,
          -0.006905467458972424
        ]
      }
    }
  ]
}